{
    "links": {
        "self": "http://www.neowsapp.com/rest/v1/neo/3831214?api_key=iIulBulltgU6a56xZRHN4H3l9WmuAYTsLGpBGhQ2"
    },
    "id": "3831214",
    "neo_reference_id": "3831214",
    "name": "(2018 TW1)",
    "designation": "2018 TW1",
    "nasa_jpl_url": "http://ssd.jpl.nasa.gov/sbdb.cgi?sstr=3831214",
    "absolute_magnitude_h": 27.8,
    "estimated_diameter": {
        "kilometers": {
            "estimated_diameter_min": 0.0073207399,
            "estimated_diameter_max": 0.016369672
        },
        "meters": {
            "estimated_diameter_min": 7.3207398935,
            "estimated_diameter_max": 16.3696720474
        },
        "miles": {
            "estimated_diameter_min": 0.0045488955,
            "estimated_diameter_max": 0.0101716395
        },
        "feet": {
            "estimated_diameter_min": 24.0181762721,
            "estimated_diameter_max": 53.70627484
        }
    },
    "is_potentially_hazardous_asteroid": false,
    "close_approach_data": [
        {
            "close_approach_date": "2018-10-06",
            "close_approach_date_full": "2018-Oct-06 08:52",
            "epoch_date_close_approach": 1538815920000,
            "relative_velocity": {
                "kilometers_per_second": "8.0496916763",
                "kilometers_per_hour": "28978.890034519",
                "miles_per_hour": "18006.3553106154"
            },
            "miss_distance": {
                "astronomical": "0.0110522751",
                "lunar": "4.2993350139",
                "kilometers": "1653396.813614037",
                "miles": "1027373.1400542306"
            },
            "orbiting_body": "Earth"
        },
        {
            "close_approach_date": "2094-08-23",
            "close_approach_date_full": "2094-Aug-23 01:07",
            "epoch_date_close_approach": 3933364020000,
            "relative_velocity": {
                "kilometers_per_second": "18.6107172909",
                "kilometers_per_hour": "66998.5822473224",
                "miles_per_hour": "41630.3135080654"
            },
            "miss_distance": {
                "astronomical": "0.396513124",
                "lunar": "154.243605236",
                "kilometers": "59317518.77744588",
                "miles": "36858197.030997944"
            },
            "orbiting_body": "Earth"
        }
    ],
    "orbital_data": {
        "orbit_id": "1",
        "orbit_determination_date": "2018-10-07 09:12:11",
        "first_observation_date": "2018-10-05",
        "last_observation_date": "2018-10-07",
        "data_arc_in_days": 2,
        "observations_used": 43,
        "orbit_uncertainty": "7",
        "minimum_orbit_intersection": ".0107613",
        "jupiter_tisserand_invariant": "3.794",
        "epoch_osculation": "2459000.5",
        "eccentricity": ".47128009074657",
        "semi_major_axis": "1.898287004001068",
        "inclination": "8.660273127191154",
        "ascending_node_longitude": "192.8323123287086",
        "orbital_period": "955.3032134088419",
        "perihelion_distance": "1.00366213249241",
        "perihelion_argument": "191.6848114455877",
        "aphelion_distance": "2.792911875509726",
        "perihelion_time": "2459362.817883114219",
        "mean_anomaly": "223.4627874267427",
        "mean_motion": ".3768437025511507",
        "equinox": "J2000",
        "orbit_class": {
            "orbit_class_type": "APO",
            "orbit_class_description": "Near-Earth asteroid orbits which cross the Earth’s orbit similar to that of 1862 Apollo",
            "orbit_class_range": "a (semi-major axis) > 1.0 AU; q (perihelion) < 1.017 AU"
        }
    },
    "is_sentry_object": false
}